{"fetched_at":"2026-03-30T13:17:50Z","count":15418,"tles":[{"name":"STARLINK-30920","line1":"1 58378U 23178E   26087.92369059 -.00002790  00000+0 -82200-4 0  9993","line2":"2 58378  53.1598 259.1660 0001022  93.3593 266.7525 15.30166498133014","category":"Starlink"}]}