{
  "norad_id": 58378,
  "name": "STARLINK-30920",
  "history": [
    {
      "epoch": "2026-03-28T22:10:06.866976",
      "apogee_km": 476.0155249824793,
      "perigee_km": 474.61467937279485,
      "latitude_deg": -28.147548601532822,
      "longitude_deg": 106.47429664013907,
      "semi_major_axis_km": 6853.452102177637,
      "eccentricity": 0.0001022,
      "inclination_deg": 53.1598,
      "raan_deg": 259.166,
      "arg_perigee_deg": 93.3593,
      "mean_anomaly_deg": 266.7525,
      "mean_motion_rev_day": 15.30166498
    }
  ]
}